[{"OBJECT_NAME":"TIANMU-1 10","OBJECT_ID":"2023-101D","EPOCH":"2026-03-09T23:06:46.939392","MEAN_MOTION":15.2921896,"ECCENTRICITY":0.00069292,"INCLINATION":97.2749,"RA_OF_ASC_NODE":122.1027,"ARG_OF_PERICENTER":133.6162,"MEAN_ANOMALY":226.5654,"EPHEMERIS_TYPE":0,"CLASSIFICATION_TYPE":"U","NORAD_CAT_ID":57402,"ELEMENT_SET_NO":999,"REV_AT_EPOCH":14647,"BSTAR":0.00032238884,"MEAN_MOTION_DOT":9.075e-5,"MEAN_MOTION_DDOT":0},{"OBJECT_NAME":"STARLINK-34475","OBJECT_ID":"2025-137K","EPOCH":"2026-03-09T22:43:40.464768","MEAN_MOTION":15.30214064,"ECCENTRICITY":0.00010066,"INCLINATION":53.1596,"RA_OF_ASC_NODE":334.0867,"ARG_OF_PERICENTER":128.107,"MEAN_ANOMALY":232.0022,"EPHEMERIS_TYPE":0,"CLASSIFICATION_TYPE":"U","NORAD_CAT_ID":64603,"ELEMENT_SET_NO":999,"REV_AT_EPOCH":4077,"BSTAR":0.00093453443,"MEAN_MOTION_DOT":0.00027433,"MEAN_MOTION_DDOT":0}]
